{"type": "FeatureCollection", "features": [ {"type": "Feature", "properties": {"norad_id": 30071, "name": "FENGYUN 1C DEB", "group": "fengyun-1c-debris", "lat": 12.882192717068037, "lon": 76.00857681190008, "alt_km": 734.7279734871736, "timestamp": "2025-12-04T23:34:05.996180+00:00", "meta": {"OBJECT_NAME": "FENGYUN 1C DEB", "OBJECT_ID": "1999-025PY", "EPOCH": "2025-12-04T12:12:31.052736", "MEAN_MOTION": 14.51872411, "ECCENTRICITY": 0.0040062, "INCLINATION": 98.6598, "RA_OF_ASC_NODE": 77.5183, "ARG_OF_PERICENTER": 134.6018, "MEAN_ANOMALY": 286.4314, "EPHEMERIS_TYPE": 0, "CLASSIFICATION_TYPE": "U", "NORAD_CAT_ID": 30071, "ELEMENT_SET_NO": 999, "REV_AT_EPOCH": 98107, "BSTAR": 0.0070578, "MEAN_MOTION_DOT": 0.00028802, "MEAN_MOTION_DDOT": 0}, "tle": {"line1": "1 30071U 99025PY  25338.50869274  .00028802  00000+0  70578-2 0  9996", "line2": "2 30071  98.6598  77.5183 0040062 134.6018 286.4314 14.51872411981071"}}, "geometry": {"type": "Point", "coordinates": [76.00857681190008, 12.882192717068037]}}, {"type": "Feature", "properties": {"norad_id": 30072, "name": "FENGYUN 1C DEB", "group": "fengyun-1c-debris", "lat": 16.560817463433047, "lon": 124.092536974232, "alt_km": 761.2250855551929, "timestamp": "2025-12-04T23:34:05.996190+00:00", "meta": {"OBJECT_NAME": "FENGYUN 1C DEB", "OBJECT_ID": "1999-025PZ", "EPOCH": "2025-12-03T09:04:08.913216", "MEAN_MOTION": 14.37481065, "ECCENTRICITY": 0.00591143, "INCLINATION": 99.0767, "RA_OF_ASC_NODE": 125.125, "ARG_OF_PERICENTER": 299.455, "MEAN_ANOMALY": 60.0744, "EPHEMERIS_TYPE": 0, "CLASSIFICATION_TYPE": "U", "NORAD_CAT_ID": 30072, "ELEMENT_SET_NO": 999, "REV_AT_EPOCH": 97036, "BSTAR": 0.0039447834, "MEAN_MOTION_DOT": 0.0001202, "MEAN_MOTION_DDOT": 0}, "tle": {"line1": "1 30072U 99025PZ  25337.37788094  .00012020  00000+0  39448-2 0  9997", "line2": "2 30072  99.0767 125.1250 0059114 299.4550  60.0744 14.37481065970367"}}, "geometry": {"type": "Point", "coordinates": [124.092536974232, 16.560817463433047]}}, {"type": "Feature", "properties": {"norad_id": 30073, "name": "FENGYUN 1C DEB", "group": "fengyun-1c-debris", "lat": 78.3447891403765, "lon": -174.8488011833392, "alt_km": 858.0080760372939, "timestamp": "2025-12-04T23:34:05.996200+00:00", "meta": {"OBJECT_NAME": "FENGYUN 1C DEB", "OBJECT_ID": "1999-025QA", "EPOCH": "2025-12-04T10:17:09.825216", "MEAN_MOTION": 14.18580872, "ECCENTRICITY": 0.0054292, "INCLINATION": 99.4103, "RA_OF_ASC_NODE": 311.0535, "ARG_OF_PERICENTER": 304.0886, "MEAN_ANOMALY": 207.7805, "EPHEMERIS_TYPE": 0, "CLASSIFICATION_TYPE": "U", "NORAD_CAT_ID": 30073, "ELEMENT_SET_NO": 999, "REV_AT_EPOCH": 96807, "BSTAR": 0.0036226, "MEAN_MOTION_DOT": 7.569e-05, "MEAN_MOTION_DDOT": 0}, "tle": {"line1": "1 30073U 99025QA  25338.42858594  .00007569  00000+0  36226-2 0  9991", "line2": "2 30073  99.4103 311.0535 0054292 304.0886 207.7805 14.18580872968073"}}, "geometry": {"type": "Point", "coordinates": [-174.8488011833392, 78.3447891403765]}}, {"type": "Feature", "properties": {"norad_id": 30074, "name": "FENGYUN 1C DEB", "group": "fengyun-1c-debris", "lat": 12.975964270270872, "lon": 42.945874398241415, "alt_km": 917.1467999065962, "timestamp": "2025-12-04T23:34:05.996210+00:00", "meta": {"OBJECT_NAME": "FENGYUN 1C DEB", "OBJECT_ID": "1999-025QB", "EPOCH": "2025-12-03T03:18:42.300576", "MEAN_MOTION": 14.12765686, "ECCENTRICITY": 0.00975993, "INCLINATION": 99.1309, "RA_OF_ASC_NODE": 43.1902, "ARG_OF_PERICENTER": 178.438, "MEAN_ANOMALY": 181.7114, "EPHEMERIS_TYPE": 0, "CLASSIFICATION_TYPE": "U", "NORAD_CAT_ID": 30074, "ELEMENT_SET_NO": 999, "REV_AT_EPOCH": 96526, "BSTAR": 0.002027268, "MEAN_MOTION_DOT": 3.894e-05, "MEAN_MOTION_DDOT": 0}, "tle": {"line1": "1 30074U 99025QB  25337.13798959  .00003894  00000+0  20273-2 0  9999", "line2": "2 30074  99.1309  43.1902 0097599 178.4380 181.7114 14.12765686965263"}}, "geometry": {"type": "Point", "coordinates": [42.945874398241415, 12.975964270270872]}}, {"type": "Feature", "properties": {"norad_id": 30075, "name": "FENGYUN 1C DEB", "group": "fengyun-1c-debris", "lat": -44.3452252180913, "lon": 38.494982443983915, "alt_km": 956.0073178031207, "timestamp": "2025-12-04T23:34:05.996220+00:00", "meta": {"OBJECT_NAME": "FENGYUN 1C DEB", "OBJECT_ID": "1999-025QC", "EPOCH": "2025-12-04T15:45:29.071008", "MEAN_MOTION": 13.92528548, "ECCENTRICITY": 0.0090758, "INCLINATION": 99.3629, "RA_OF_ASC_NODE": 28.8863, "ARG_OF_PERICENTER": 198.8438, "MEAN_ANOMALY": 284.6838, "EPHEMERIS_TYPE": 0, "CLASSIFICATION_TYPE": "U", "NORAD_CAT_ID": 30075, "ELEMENT_SET_NO": 999, "REV_AT_EPOCH": 95952, "BSTAR": 0.00028803, "MEAN_MOTION_DOT": 3.38e-06, "MEAN_MOTION_DDOT": 0}, "tle": {"line1": "1 30075U 99025QC  25338.65658647  .00000338  00000+0  28803-3 0  9995", "line2": "2 30075  99.3629  28.8863 0090758 198.8438 284.6838 13.92528548959526"}}, "geometry": {"type": "Point", "coordinates": [38.494982443983915, -44.3452252180913]}}, {"type": "Feature", "properties": {"norad_id": 30076, "name": "FENGYUN 1C DEB", "group": "fengyun-1c-debris", "lat": 74.34027839822252, "lon": -178.57608496204548, "alt_km": 843.3220306741268, "timestamp": "2025-12-04T23:34:05.996230+00:00", "meta": {"OBJECT_NAME": "FENGYUN 1C DEB", "OBJECT_ID": "1999-025QD", "EPOCH": "2025-12-04T13:11:30.536736", "MEAN_MOTION": 13.76283409, "ECCENTRICITY": 0.0175596, "INCLINATION": 99.2375, "RA_OF_ASC_NODE": 325.5174, "ARG_OF_PERICENTER": 115.4006, "MEAN_ANOMALY": 6.6572, "EPHEMERIS_TYPE": 0, "CLASSIFICATION_TYPE": "U", "NORAD_CAT_ID": 30076, "ELEMENT_SET_NO": 999, "REV_AT_EPOCH": 94781, "BSTAR": 0.00042277, "MEAN_MOTION_DOT": 4.2e-06, "MEAN_MOTION_DDOT": 0}, "tle": {"line1": "1 30076U 99025QD  25338.54965899  .00000420  00000+0  42277-3 0  9997", "line2": "2 30076  99.2375 325.5174 0175596 115.4006   6.6572 13.76283409947818"}}, "geometry": {"type": "Point", "coordinates": [-178.57608496204548, 74.34027839822252]}}, {"type": "Feature", "properties": {"norad_id": 30077, "name": "FENGYUN 1C DEB", "group": "fengyun-1c-debris", "lat": -66.67573377050138, "lon": 153.9315146472831, "alt_km": 865.0673768463403, "timestamp": "2025-12-04T23:34:05.996240+00:00", "meta": {"OBJECT_NAME": "FENGYUN 1C DEB", "OBJECT_ID": "1999-025QE", "EPOCH": "2025-12-04T14:26:27.730176", "MEAN_MOTION": 14.07077101, "ECCENTRICITY": 0.0020461, "INCLINATION": 98.7584, "RA_OF_ASC_NODE": 354.5125, "ARG_OF_PERICENTER": 288.3517, "MEAN_ANOMALY": 194.6969, "EPHEMERIS_TYPE": 0, "CLASSIFICATION_TYPE": "U", "NORAD_CAT_ID": 30077, "ELEMENT_SET_NO": 999, "REV_AT_EPOCH": 96998, "BSTAR": -4.7102e-06, "MEAN_MOTION_DOT": -5.1e-07, "MEAN_MOTION_DDOT": 0}, "tle": {"line1": "1 30077U 99025QE  25338.60170984 -.00000051  00000+0 -47102-5 0  9994", "line2": "2 30077  98.7584 354.5125 0020461 288.3517 194.6969 14.07077101969985"}}, "geometry": {"type": "Point", "coordinates": [153.9315146472831, -66.67573377050138]}}, {"type": "Feature", "properties": {"norad_id": 30078, "name": "FENGYUN 1C DEB", "group": "fengyun-1c-debris", "lat": 50.63715304999023, "lon": 42.89787615419784, "alt_km": 822.0536108623, "timestamp": "2025-12-04T23:34:05.996250+00:00", "meta": {"OBJECT_NAME": "FENGYUN 1C DEB", "OBJECT_ID": "1999-025QF", "EPOCH": "2025-12-04T17:09:34.276320", "MEAN_MOTION": 14.23064363, "ECCENTRICITY": 0.0052506, "INCLINATION": 98.8333, "RA_OF_ASC_NODE": 53.5573, "ARG_OF_PERICENTER": 303.9074, "MEAN_ANOMALY": 179.8188, "EPHEMERIS_TYPE": 0, "CLASSIFICATION_TYPE": "U", "NORAD_CAT_ID": 30078, "ELEMENT_SET_NO": 999, "REV_AT_EPOCH": 96999, "BSTAR": 0.0027673, "MEAN_MOTION_DOT": 6.289e-05, "MEAN_MOTION_DDOT": 0}, "tle": {"line1": "1 30078U 99025QF  25338.71498005  .00006289  00000+0  27673-2 0  9999", "line2": "2 30078  98.8333  53.5573 0052506 303.9074 179.8188 14.23064363969992"}}, "geometry": {"type": "Point", "coordinates": [42.89787615419784, 50.63715304999023]}}, {"type": "Feature", "properties": {"norad_id": 30079, "name": "FENGYUN 1C DEB", "group": "fengyun-1c-debris", "lat": 49.56528136445788, "lon": 23.84009576564234, "alt_km": 885.5495919041296, "timestamp": "2025-12-04T23:34:05.996261+00:00", "meta": {"OBJECT_NAME": "FENGYUN 1C DEB", "OBJECT_ID": "1999-025QG", "EPOCH": "2025-12-04T15:29:08.690208", "MEAN_MOTION": 14.00786708, "ECCENTRICITY": 0.0084706, "INCLINATION": 99.0371, "RA_OF_ASC_NODE": 34.2713, "ARG_OF_PERICENTER": 321.8186, "MEAN_ANOMALY": 190.3321, "EPHEMERIS_TYPE": 0, "CLASSIFICATION_TYPE": "U", "NORAD_CAT_ID": 30079, "ELEMENT_SET_NO": 999, "REV_AT_EPOCH": 96424, "BSTAR": 0.00035039, "MEAN_MOTION_DOT": 4.94e-06, "MEAN_MOTION_DDOT": 0}, "tle": {"line1": "1 30079U 99025QG  25338.64523947  .00000494  00000+0  35039-3 0  9994", "line2": "2 30079  99.0371  34.2713 0084706 321.8186 190.3321 14.00786708964249"}}, "geometry": {"type": "Point", "coordinates": [23.84009576564234, 49.56528136445788]}}, {"type": "Feature", "properties": {"norad_id": 30080, "name": "FENGYUN 1C DEB", "group": "fengyun-1c-debris", "lat": -16.728923163843994, "lon": 137.1119987452062, "alt_km": 900.3547822673672, "timestamp": "2025-12-04T23:34:05.996271+00:00", "meta": {"OBJECT_NAME": "FENGYUN 1C DEB", "OBJECT_ID": "1999-025QH", "EPOCH": "2025-12-03T16:50:31.319232", "MEAN_MOTION": 14.10804881, "ECCENTRICITY": 0.01339789, "INCLINATION": 98.6974, "RA_OF_ASC_NODE": 318.5094, "ARG_OF_PERICENTER": 86.0655, "MEAN_ANOMALY": 90.6529, "EPHEMERIS_TYPE": 0, "CLASSIFICATION_TYPE": "U", "NORAD_CAT_ID": 30080, "ELEMENT_SET_NO": 999, "REV_AT_EPOCH": 97110, "BSTAR": 0.00043186495, "MEAN_MOTION_DOT": 8e-06, "MEAN_MOTION_DDOT": 0}, "tle": {"line1": "1 30080U 99025QH  25337.70175138  .00000800  00000+0  43186-3 0  9990", "line2": "2 30080  98.6974 318.5094 0133978  86.0655  90.6529 14.10804881971101"}}, "geometry": {"type": "Point", "coordinates": [137.1119987452062, -16.728923163843994]}}]}